{
  "type": "FeatureCollection",
  "features": [
    {
      "type": "Feature",
      "properties": {
        "norad_id": 37474,
        "name": "FENGYUN 1C DEB",
        "group": "fengyun-1c-debris",
        "lat": -77.8598955987147,
        "lon": -24.660759425806773,
        "alt_km": 738.5399131388967,
        "timestamp": "2025-12-23T09:49:07.372901+00:00",
        "meta_object_name": "FENGYUN 1C DEB",
        "meta_object_id": "1999-025EJU",
        "meta_epoch": "2025-12-21T07:48:38.082528",
        "meta_mean_motion": 14.75262893,
        "meta_eccentricity": 0.01320056,
        "meta_inclination": 99.1647,
        "meta_ra_of_asc_node": 201.6138,
        "meta_arg_of_pericenter": 108.3488,
        "meta_mean_anomaly": 253.2126,
        "meta_ephemeris_type": 0,
        "meta_classification_type": "U",
        "meta_norad_cat_id": 37474,
        "meta_element_set_no": 999,
        "meta_rev_at_epoch": 62502,
        "meta_bstar": 0.00092646211,
        "meta_mean_motion_dot": 7.16e-05,
        "meta_mean_motion_ddot": 0,
        "tle_line1": "1 37474U 99025EJU 25355.32544077  .00007160  00000+0  92646-3 0  9995",
        "tle_line2": "2 37474  99.1647 201.6138 0132005 108.3488 253.2126 14.75262893625020"
      },
      "geometry": {
        "type": "Point",
        "coordinates": [
          -24.660759425806773,
          -77.8598955987147
        ]
      }
    },
    {
      "type": "Feature",
      "properties": {
        "norad_id": 37477,
        "name": "FENGYUN 1C DEB",
        "group": "fengyun-1c-debris",
        "lat": 26.127261738083508,
        "lon": -173.9620012919733,
        "alt_km": 819.4986907838493,
        "timestamp": "2025-12-23T09:49:07.372912+00:00",
        "meta_object_name": "FENGYUN 1C DEB",
        "meta_object_id": "1999-025EJX",
        "meta_epoch": "2025-12-16T18:06:36.022176",
        "meta_mean_motion": 14.19731482,
        "meta_eccentricity": 0.00371355,
        "meta_inclination": 98.6057,
        "meta_ra_of_asc_node": 355.3103,
        "meta_arg_of_pericenter": 94.8392,
        "meta_mean_anomaly": 265.7026,
        "meta_ephemeris_type": 0,
        "meta_classification_type": "U",
        "meta_norad_cat_id": 37477,
        "meta_element_set_no": 999,
        "meta_rev_at_epoch": 81971,
        "meta_bstar": 0.00055952668,
        "meta_mean_motion_dot": 1.15e-05,
        "meta_mean_motion_ddot": 0,
        "tle_line1": "1 37477U 99025EJX 25350.75458359  .00001150  00000+0  55953-3 0  9990",
        "tle_line2": "2 37477  98.6057 355.3103 0037135  94.8392 265.7026 14.19731482819713"
      },
      "geometry": {
        "type": "Point",
        "coordinates": [
          -173.9620012919733,
          26.127261738083508
        ]
      }
    },
    {
      "type": "Feature",
      "properties": {
        "norad_id": 37478,
        "name": "FENGYUN 1C DEB",
        "group": "fengyun-1c-debris",
        "lat": 64.24556536461331,
        "lon": 179.4157498167668,
        "alt_km": 1661.8762889885247,
        "timestamp": "2025-12-23T09:49:07.372922+00:00",
        "meta_object_name": "FENGYUN 1C DEB",
        "meta_object_id": "1999-025EJY",
        "meta_epoch": "2025-12-14T05:55:23.732544",
        "meta_mean_motion": 13.02983973,
        "meta_eccentricity": 0.05482188,
        "meta_inclination": 99.6498,
        "meta_ra_of_asc_node": 330.5496,
        "meta_arg_of_pericenter": 315.7365,
        "meta_mean_anomaly": 40.1108,
        "meta_ephemeris_type": 0,
        "meta_classification_type": "U",
        "meta_norad_cat_id": 37478,
        "meta_element_set_no": 999,
        "meta_rev_at_epoch": 56581,
        "meta_bstar": 0.0055489953,
        "meta_mean_motion_dot": 3.525e-05,
        "meta_mean_motion_ddot": 0,
        "tle_line1": "1 37478U 99025EJY 25348.24680246  .00003525  00000+0  55490-2 0  9997",
        "tle_line2": "2 37478  99.6498 330.5496 0548218 315.7365  40.1108 13.02983973565818"
      },
      "geometry": {
        "type": "Point",
        "coordinates": [
          179.4157498167668,
          64.24556536461331
        ]
      }
    },
    {
      "type": "Feature",
      "properties": {
        "norad_id": 37589,
        "name": "FENGYUN 1C DEB",
        "group": "fengyun-1c-debris",
        "lat": 61.047920459677286,
        "lon": 96.85768602344153,
        "alt_km": 897.2988738476552,
        "timestamp": "2025-12-23T09:49:07.372932+00:00",
        "meta_object_name": "FENGYUN 1C DEB",
        "meta_object_id": "1999-025EKH",
        "meta_epoch": "2025-12-14T22:19:52.787712",
        "meta_mean_motion": 14.08203479,
        "meta_eccentricity": 0.01182522,
        "meta_inclination": 99.0734,
        "meta_ra_of_asc_node": 251.544,
        "meta_arg_of_pericenter": 258.1684,
        "meta_mean_anomaly": 100.6202,
        "meta_ephemeris_type": 0,
        "meta_classification_type": "U",
        "meta_norad_cat_id": 37589,
        "meta_element_set_no": 999,
        "meta_rev_at_epoch": 82615,
        "meta_bstar": 0.0019842502,
        "meta_mean_motion_dot": 3.566e-05,
        "meta_mean_motion_ddot": 0,
        "tle_line1": "1 37589U 99025EKH 25348.93047208  .00003566  00000+0  19843-2 0  9998",
        "tle_line2": "2 37589  99.0734 251.5440 0118252 258.1684 100.6202 14.08203479826151"
      },
      "geometry": {
        "type": "Point",
        "coordinates": [
          96.85768602344153,
          61.047920459677286
        ]
      }
    },
    {
      "type": "Feature",
      "properties": {
        "norad_id": 37594,
        "name": "FENGYUN 1C DEB",
        "group": "fengyun-1c-debris",
        "lat": 66.0465953332952,
        "lon": 6.207906103461093,
        "alt_km": 909.9063147601664,
        "timestamp": "2025-12-23T09:49:07.372942+00:00",
        "meta_object_name": "FENGYUN 1C DEB",
        "meta_object_id": "1999-025EKN",
        "meta_epoch": "2025-12-17T08:50:53.140704",
        "meta_mean_motion": 14.11122506,
        "meta_eccentricity": 0.00850392,
        "meta_inclination": 98.7342,
        "meta_ra_of_asc_node": 20.5782,
        "meta_arg_of_pericenter": 256.4735,
        "meta_mean_anomaly": 102.6951,
        "meta_ephemeris_type": 0,
        "meta_classification_type": "U",
        "meta_norad_cat_id": 37594,
        "meta_element_set_no": 999,
        "meta_rev_at_epoch": 77827,
        "meta_bstar": 0.00026135684,
        "meta_mean_motion_dot": 4.43e-06,
        "meta_mean_motion_ddot": 0,
        "tle_line1": "1 37594U 99025EKN 25351.36867061  .00000443  00000+0  26136-3 0  9997",
        "tle_line2": "2 37594  98.7342  20.5782 0085039 256.4735 102.6951 14.11122506778272"
      },
      "geometry": {
        "type": "Point",
        "coordinates": [
          6.207906103461093,
          66.0465953332952
        ]
      }
    },
    {
      "type": "Feature",
      "properties": {
        "norad_id": 37595,
        "name": "FENGYUN 1C DEB",
        "group": "fengyun-1c-debris",
        "lat": 17.39936980527538,
        "lon": 30.743010935522676,
        "alt_km": 676.6771488198219,
        "timestamp": "2025-12-23T09:49:07.372953+00:00",
        "meta_object_name": "FENGYUN 1C DEB",
        "meta_object_id": "1999-025EKP",
        "meta_epoch": "2025-12-19T20:17:37.284288",
        "meta_mean_motion": 14.71383001,
        "meta_eccentricity": 0.00286871,
        "meta_inclination": 99.0453,
        "meta_ra_of_asc_node": 203.926,
        "meta_arg_of_pericenter": 343.5826,
        "meta_mean_anomaly": 33.1316,
        "meta_ephemeris_type": 0,
        "meta_classification_type": "U",
        "meta_norad_cat_id": 37595,
        "meta_element_set_no": 999,
        "meta_rev_at_epoch": 62710,
        "meta_bstar": 0.0022288021,
        "meta_mean_motion_dot": 0.00013847,
        "meta_mean_motion_ddot": 0,
        "tle_line1": "1 37595U 99025EKP 25353.84557042  .00013847  00000+0  22288-2 0  9993",
        "tle_line2": "2 37595  99.0453 203.9260 0028687 343.5826  33.1316 14.71383001627106"
      },
      "geometry": {
        "type": "Point",
        "coordinates": [
          30.743010935522676,
          17.39936980527538
        ]
      }
    },
    {
      "type": "Feature",
      "properties": {
        "norad_id": 37600,
        "name": "FENGYUN 1C DEB",
        "group": "fengyun-1c-debris",
        "lat": -51.831141207665546,
        "lon": -37.954475843402456,
        "alt_km": 1180.6065336608544,
        "timestamp": "2025-12-23T09:49:07.372963+00:00",
        "meta_object_name": "FENGYUN 1C DEB",
        "meta_object_id": "1999-025EKU",
        "meta_epoch": "2025-12-21T16:44:55.269888",
        "meta_mean_motion": 13.82620131,
        "meta_eccentricity": 0.03567199,
        "meta_inclination": 98.9342,
        "meta_ra_of_asc_node": 151.9626,
        "meta_arg_of_pericenter": 25.2746,
        "meta_mean_anomaly": 336.5397,
        "meta_ephemeris_type": 0,
        "meta_classification_type": "U",
        "meta_norad_cat_id": 37600,
        "meta_element_set_no": 999,
        "meta_rev_at_epoch": 88611,
        "meta_bstar": 0.0021018419,
        "meta_mean_motion_dot": 3.679e-05,
        "meta_mean_motion_ddot": 0,
        "tle_line1": "1 37600U 99025EKU 25355.69786192  .00003679  00000+0  21018-2 0  9997",
        "tle_line2": "2 37600  98.9342 151.9626 0356719  25.2746 336.5397 13.82620131886117"
      },
      "geometry": {
        "type": "Point",
        "coordinates": [
          -37.954475843402456,
          -51.831141207665546
        ]
      }
    }
  ]
}